{
  "type": "FeatureCollection",
  "features": [
    {
      "type": "Feature",
      "properties": {
        "norad_id": 31307,
        "name": "GALAXY 17 (G-17)",
        "group": "intelsat",
        "lat": 2.315601035320414,
        "lon": 148.19199589495662,
        "alt_km": 35791.186398990736,
        "timestamp": "2025-12-20T09:36:01.299360+00:00",
        "meta_object_name": "GALAXY 17 (G-17)",
        "meta_object_id": "2007-016B",
        "meta_epoch": "2025-12-19T12:51:34.890336",
        "meta_mean_motion": 1.00272466,
        "meta_eccentricity": 0.0005441,
        "meta_inclination": 2.5163,
        "meta_ra_of_asc_node": 82.2108,
        "meta_arg_of_pericenter": 169.7532,
        "meta_mean_anomaly": 304.3514,
        "meta_ephemeris_type": 0,
        "meta_classification_type": "U",
        "meta_norad_cat_id": 31307,
        "meta_element_set_no": 999,
        "meta_rev_at_epoch": 6800,
        "meta_bstar": 0,
        "meta_mean_motion_dot": -1.84e-06,
        "meta_mean_motion_ddot": 0,
        "tle_line1": "1 31307U 07016B   25353.53582049 -.00000184  00000+0  00000+0 0  9994",
        "tle_line2": "2 31307   2.5163  82.2108 0005441 169.7532 304.3514  1.00272466 68003"
      },
      "geometry": {
        "type": "Point",
        "coordinates": [
          148.19199589495662,
          2.315601035320414
        ]
      }
    },
    {
      "type": "Feature",
      "properties": {
        "norad_id": 31862,
        "name": "DIRECTV 10",
        "group": "intelsat",
        "lat": -0.00043222116661308086,
        "lon": 130.4178995015406,
        "alt_km": 35786.10946388725,
        "timestamp": "2025-12-20T09:36:01.299372+00:00",
        "meta_object_name": "DIRECTV 10",
        "meta_object_id": "2007-032A",
        "meta_epoch": "2025-12-19T19:37:07.901184",
        "meta_mean_motion": 1.00269717,
        "meta_eccentricity": 2.514e-05,
        "meta_inclination": 0.0066,
        "meta_ra_of_asc_node": 103.6685,
        "meta_arg_of_pericenter": 84.488,
        "meta_mean_anomaly": 91.9811,
        "meta_ephemeris_type": 0,
        "meta_classification_type": "U",
        "meta_norad_cat_id": 31862,
        "meta_element_set_no": 999,
        "meta_rev_at_epoch": 4379,
        "meta_bstar": 0,
        "meta_mean_motion_dot": -7.8e-07,
        "meta_mean_motion_ddot": 0,
        "tle_line1": "1 31862U 07032A   25353.81745256 -.00000078  00000+0  00000+0 0  9992",
        "tle_line2": "2 31862   0.0066 103.6685 0000251  84.4880  91.9811  1.00269717 43798"
      },
      "geometry": {
        "type": "Point",
        "coordinates": [
          130.4178995015406,
          -0.00043222116661308086
        ]
      }
    },
    {
      "type": "Feature",
      "properties": {
        "norad_id": 32253,
        "name": "INTELSAT 11 (IS-11)",
        "group": "intelsat",
        "lat": -0.8113934194333924,
        "lon": 65.2551391919134,
        "alt_km": 36167.96980094126,
        "timestamp": "2025-12-20T09:36:01.299383+00:00",
        "meta_object_name": "INTELSAT 11 (IS-11)",
        "meta_object_id": "2007-044B",
        "meta_epoch": "2025-12-19T15:54:17.392320",
        "meta_mean_motion": 0.99051924,
        "meta_eccentricity": 0.0008546,
        "meta_inclination": 3.0972,
        "meta_ra_of_asc_node": 80.9007,
        "meta_arg_of_pericenter": 168.5699,
        "meta_mean_anomaly": 272.8399,
        "meta_ephemeris_type": 0,
        "meta_classification_type": "U",
        "meta_norad_cat_id": 32253,
        "meta_element_set_no": 999,
        "meta_rev_at_epoch": 6667,
        "meta_bstar": 0,
        "meta_mean_motion_dot": -3.8e-07,
        "meta_mean_motion_ddot": 0,
        "tle_line1": "1 32253U 07044B   25353.66270130 -.00000038  00000+0  00000+0 0  9993",
        "tle_line2": "2 32253   3.0972  80.9007 0008546 168.5699 272.8399  0.99051924 66673"
      },
      "geometry": {
        "type": "Point",
        "coordinates": [
          65.2551391919134,
          -0.8113934194333924
        ]
      }
    },
    {
      "type": "Feature",
      "properties": {
        "norad_id": 32388,
        "name": "HORIZONS-2",
        "group": "intelsat",
        "lat": 2.0911115494764654,
        "lon": 159.39513341665383,
        "alt_km": 35794.431869879016,
        "timestamp": "2025-12-20T09:36:01.299395+00:00",
        "meta_object_name": "HORIZONS-2",
        "meta_object_id": "2007-063B",
        "meta_epoch": "2025-12-19T11:12:06.914880",
        "meta_mean_motion": 1.00272112,
        "meta_eccentricity": 0.0004573,
        "meta_inclination": 2.1381,
        "meta_ra_of_asc_node": 82.8899,
        "meta_arg_of_pericenter": 193.0315,
        "meta_mean_anomaly": 266.6388,
        "meta_ephemeris_type": 0,
        "meta_classification_type": "U",
        "meta_norad_cat_id": 32388,
        "meta_element_set_no": 999,
        "meta_rev_at_epoch": 6601,
        "meta_bstar": 0,
        "meta_mean_motion_dot": -2.31e-06,
        "meta_mean_motion_ddot": 0,
        "tle_line1": "1 32388U 07063B   25353.46674670 -.00000231  00000+0  00000+0 0  9993",
        "tle_line2": "2 32388   2.1381  82.8899 0004573 193.0315 266.6388  1.00272112 66014"
      },
      "geometry": {
        "type": "Point",
        "coordinates": [
          159.39513341665383,
          2.0911115494764654
        ]
      }
    },
    {
      "type": "Feature",
      "properties": {
        "norad_id": 32729,
        "name": "DIRECTV 11",
        "group": "intelsat",
        "lat": 0.003866699995001566,
        "lon": 134.04357208803137,
        "alt_km": 35784.356177905014,
        "timestamp": "2025-12-20T09:36:01.299410+00:00",
        "meta_object_name": "DIRECTV 11",
        "meta_object_id": "2008-013A",
        "meta_epoch": "2025-12-19T16:13:00.599232",
        "meta_mean_motion": 1.00272169,
        "meta_eccentricity": 4.774e-05,
        "meta_inclination": 0.0442,
        "meta_ra_of_asc_node": 195.9689,
        "meta_arg_of_pericenter": 333.3014,
        "meta_mean_anomaly": 63.3182,
        "meta_ephemeris_type": 0,
        "meta_classification_type": "U",
        "meta_norad_cat_id": 32729,
        "meta_element_set_no": 999,
        "meta_rev_at_epoch": 4379,
        "meta_bstar": 0,
        "meta_mean_motion_dot": -1.01e-06,
        "meta_mean_motion_ddot": 0,
        "tle_line1": "1 32729U 08013A   25353.67570138 -.00000101  00000+0  00000+0 0  9991",
        "tle_line2": "2 32729   0.0442 195.9689 0000477 333.3014  63.3182  1.00272169 43791"
      },
      "geometry": {
        "type": "Point",
        "coordinates": [
          134.04357208803137,
          0.003866699995001566
        ]
      }
    },
    {
      "type": "Feature",
      "properties": {
        "norad_id": 32951,
        "name": "GALAXY 18 (G-18)",
        "group": "intelsat",
        "lat": 0.029219415354845082,
        "lon": 110.21133355859511,
        "alt_km": 35797.74669760848,
        "timestamp": "2025-12-20T09:36:01.299425+00:00",
        "meta_object_name": "GALAXY 18 (G-18)",
        "meta_object_id": "2008-024A",
        "meta_epoch": "2025-12-20T04:37:38.708832",
        "meta_mean_motion": 1.00271005,
        "meta_eccentricity": 0.0002822,
        "meta_inclination": 0.0137,
        "meta_ra_of_asc_node": 52.2969,
        "meta_arg_of_pericenter": 221.3237,
        "meta_mean_anomaly": 121.812,
        "meta_ephemeris_type": 0,
        "meta_classification_type": "U",
        "meta_norad_cat_id": 32951,
        "meta_element_set_no": 999,
        "meta_rev_at_epoch": 4405,
        "meta_bstar": 0,
        "meta_mean_motion_dot": 4.9e-07,
        "meta_mean_motion_ddot": 0,
        "tle_line1": "1 32951U 08024A   25354.19280913  .00000049  00000+0  00000+0 0  9997",
        "tle_line2": "2 32951   0.0137  52.2969 0002822 221.3237 121.8120  1.00271005 44054"
      },
      "geometry": {
        "type": "Point",
        "coordinates": [
          110.21133355859511,
          0.029219415354845082
        ]
      }
    },
    {
      "type": "Feature",
      "properties": {
        "norad_id": 33153,
        "name": "INTELSAT 25 (IS-25)",
        "group": "intelsat",
        "lat": 1.9525256977754974,
        "lon": -158.30938861544254,
        "alt_km": 35778.74145711408,
        "timestamp": "2025-12-20T09:36:01.299437+00:00",
        "meta_object_name": "INTELSAT 25 (IS-25)",
        "meta_object_id": "2008-034A",
        "meta_epoch": "2025-12-20T03:15:38.761056",
        "meta_mean_motion": 1.00270174,
        "meta_eccentricity": 0.0004801,
        "meta_inclination": 2.2457,
        "meta_ra_of_asc_node": 82.5709,
        "meta_arg_of_pericenter": 187.3325,
        "meta_mean_anomaly": 196.4726,
        "meta_ephemeris_type": 0,
        "meta_classification_type": "U",
        "meta_norad_cat_id": 33153,
        "meta_element_set_no": 999,
        "meta_rev_at_epoch": 6390,
        "meta_bstar": 0,
        "meta_mean_motion_dot": -2.02e-06,
        "meta_mean_motion_ddot": 0,
        "tle_line1": "1 33153U 08034A   25354.13586529 -.00000202  00000+0  00000+0 0  9991",
        "tle_line2": "2 33153   2.2457  82.5709 0004801 187.3325 196.4726  1.00270174 63905"
      },
      "geometry": {
        "type": "Point",
        "coordinates": [
          -158.30938861544254,
          1.9525256977754974
        ]
      }
    }
  ]
}